{
  "type": "FeatureCollection",
  "features": [
    {
      "type": "Feature",
      "properties": {
        "norad_id": 35744,
        "name": "IRIDIUM 33 DEB",
        "group": "iridium-33-debris",
        "lat": 82.52686038625316,
        "lon": -10.71280081687469,
        "alt_km": 643.933924757871,
        "timestamp": "2025-12-24T18:55:56.456762+00:00",
        "meta_object_name": "IRIDIUM 33 DEB",
        "meta_object_id": "1997-051RX",
        "meta_epoch": "2025-12-23T03:22:28.782624",
        "meta_mean_motion": 14.71122887,
        "meta_eccentricity": 0.00216776,
        "meta_inclination": 86.3298,
        "meta_ra_of_asc_node": 320.7354,
        "meta_arg_of_pericenter": 155.7913,
        "meta_mean_anomaly": 204.4327,
        "meta_ephemeris_type": 0,
        "meta_classification_type": "U",
        "meta_norad_cat_id": 35744,
        "meta_element_set_no": 999,
        "meta_rev_at_epoch": 87484,
        "meta_bstar": 0.0012113531,
        "meta_mean_motion_dot": 7.502e-05,
        "meta_mean_motion_ddot": 0,
        "tle_line1": "1 35744U 97051RX  25357.14061091  .00007502  00000+0  12114-2 0  9993",
        "tle_line2": "2 35744  86.3298 320.7354 0021677 155.7913 204.4327 14.71122887874843"
      },
      "geometry": {
        "type": "Point",
        "coordinates": [
          -10.71280081687469,
          82.52686038625316
        ]
      }
    },
    {
      "type": "Feature",
      "properties": {
        "norad_id": 35797,
        "name": "IRIDIUM 33 DEB",
        "group": "iridium-33-debris",
        "lat": -35.54518790595685,
        "lon": -38.18887128333989,
        "alt_km": 634.5676978036581,
        "timestamp": "2025-12-24T18:55:56.456772+00:00",
        "meta_object_name": "IRIDIUM 33 DEB",
        "meta_object_id": "1997-051SF",
        "meta_epoch": "2025-12-24T04:31:08.009760",
        "meta_mean_motion": 14.83053483,
        "meta_eccentricity": 0.00148415,
        "meta_inclination": 86.3359,
        "meta_ra_of_asc_node": 324.7113,
        "meta_arg_of_pericenter": 111.7452,
        "meta_mean_anomaly": 248.5352,
        "meta_ephemeris_type": 0,
        "meta_classification_type": "U",
        "meta_norad_cat_id": 35797,
        "meta_element_set_no": 999,
        "meta_rev_at_epoch": 87510,
        "meta_bstar": 0.0020206958,
        "meta_mean_motion_dot": 0.00016516,
        "meta_mean_motion_ddot": 0,
        "tle_line1": "1 35797U 97051SF  25358.18828715  .00016516  00000+0  20207-2 0  9997",
        "tle_line2": "2 35797  86.3359 324.7113 0014841 111.7452 248.5352 14.83053483875106"
      },
      "geometry": {
        "type": "Point",
        "coordinates": [
          -38.18887128333989,
          -35.54518790595685
        ]
      }
    },
    {
      "type": "Feature",
      "properties": {
        "norad_id": 35806,
        "name": "IRIDIUM 33 DEB",
        "group": "iridium-33-debris",
        "lat": -65.11433494649371,
        "lon": -156.75394047409455,
        "alt_km": 718.3724358254703,
        "timestamp": "2025-12-24T18:55:56.456782+00:00",
        "meta_object_name": "IRIDIUM 33 DEB",
        "meta_object_id": "1997-051SQ",
        "meta_epoch": "2025-12-23T18:44:28.886496",
        "meta_mean_motion": 14.57443021,
        "meta_eccentricity": 0.00152726,
        "meta_inclination": 86.3434,
        "meta_ra_of_asc_node": 15.7661,
        "meta_arg_of_pericenter": 41.8859,
        "meta_mean_anomaly": 318.3515,
        "meta_ephemeris_type": 0,
        "meta_classification_type": "U",
        "meta_norad_cat_id": 35806,
        "meta_element_set_no": 999,
        "meta_rev_at_epoch": 86485,
        "meta_bstar": 0.0011018111,
        "meta_mean_motion_dot": 5.028e-05,
        "meta_mean_motion_ddot": 0,
        "tle_line1": "1 35806U 97051SQ  25357.78088989  .00005028  00000+0  11018-2 0  9990",
        "tle_line2": "2 35806  86.3434  15.7661 0015272  41.8859 318.3515 14.57443021864858"
      },
      "geometry": {
        "type": "Point",
        "coordinates": [
          -156.75394047409455,
          -65.11433494649371
        ]
      }
    },
    {
      "type": "Feature",
      "properties": {
        "norad_id": 35809,
        "name": "IRIDIUM 33 DEB",
        "group": "iridium-33-debris",
        "lat": -32.21912973481557,
        "lon": -32.45939544268114,
        "alt_km": 653.3036793846568,
        "timestamp": "2025-12-24T18:55:56.456792+00:00",
        "meta_object_name": "IRIDIUM 33 DEB",
        "meta_object_id": "1997-051ST",
        "meta_epoch": "2025-12-21T16:13:39.380736",
        "meta_mean_motion": 14.75870585,
        "meta_eccentricity": 0.00102664,
        "meta_inclination": 86.3279,
        "meta_ra_of_asc_node": 331.2775,
        "meta_arg_of_pericenter": 205.8578,
        "meta_mean_anomaly": 154.2129,
        "meta_ephemeris_type": 0,
        "meta_classification_type": "U",
        "meta_norad_cat_id": 35809,
        "meta_element_set_no": 999,
        "meta_rev_at_epoch": 86939,
        "meta_bstar": 0.0013721853,
        "meta_mean_motion_dot": 9.452e-05,
        "meta_mean_motion_ddot": 0,
        "tle_line1": "1 35809U 97051ST  25355.67615024  .00009452  00000+0  13722-2 0  9994",
        "tle_line2": "2 35809  86.3279 331.2775 0010266 205.8578 154.2129 14.75870585869399"
      },
      "geometry": {
        "type": "Point",
        "coordinates": [
          -32.45939544268114,
          -32.21912973481557
        ]
      }
    },
    {
      "type": "Feature",
      "properties": {
        "norad_id": 35846,
        "name": "IRIDIUM 33 DEB",
        "group": "iridium-33-debris",
        "lat": 44.60961637393454,
        "lon": -129.88901380775687,
        "alt_km": 730.1517978913489,
        "timestamp": "2025-12-24T18:55:56.456802+00:00",
        "meta_object_name": "IRIDIUM 33 DEB",
        "meta_object_id": "1997-051SW",
        "meta_epoch": "2025-12-24T03:19:56.863776",
        "meta_mean_motion": 14.43196634,
        "meta_eccentricity": 0.00197803,
        "meta_inclination": 86.3734,
        "meta_ra_of_asc_node": 53.9754,
        "meta_arg_of_pericenter": 134.8716,
        "meta_mean_anomaly": 225.4095,
        "meta_ephemeris_type": 0,
        "meta_classification_type": "U",
        "meta_norad_cat_id": 35846,
        "meta_element_set_no": 999,
        "meta_rev_at_epoch": 71493,
        "meta_bstar": 0.00051615927,
        "meta_mean_motion_dot": 1.758e-05,
        "meta_mean_motion_ddot": 0,
        "tle_line1": "1 35846U 97051SW  25358.13885259  .00001758  00000+0  51616-3 0  9994",
        "tle_line2": "2 35846  86.3734  53.9754 0019780 134.8716 225.4095 14.43196634714939"
      },
      "geometry": {
        "type": "Point",
        "coordinates": [
          -129.88901380775687,
          44.60961637393454
        ]
      }
    },
    {
      "type": "Feature",
      "properties": {
        "norad_id": 35848,
        "name": "IRIDIUM 33 DEB",
        "group": "iridium-33-debris",
        "lat": 47.14307496398566,
        "lon": 14.605667059575165,
        "alt_km": 629.9952108273437,
        "timestamp": "2025-12-24T18:55:56.456813+00:00",
        "meta_object_name": "IRIDIUM 33 DEB",
        "meta_object_id": "1997-051SY",
        "meta_epoch": "2025-12-23T08:36:58.937472",
        "meta_mean_motion": 14.78845827,
        "meta_eccentricity": 0.00091619,
        "meta_inclination": 86.3897,
        "meta_ra_of_asc_node": 11.347,
        "meta_arg_of_pericenter": 152.9599,
        "meta_mean_anomaly": 207.2101,
        "meta_ephemeris_type": 0,
        "meta_classification_type": "U",
        "meta_norad_cat_id": 35848,
        "meta_element_set_no": 999,
        "meta_rev_at_epoch": 66847,
        "meta_bstar": 0.0014935306,
        "meta_mean_motion_dot": 0.00011029,
        "meta_mean_motion_ddot": 0,
        "tle_line1": "1 35848U 97051SY  25357.35901548  .00011029  00000+0  14935-2 0  9993",
        "tle_line2": "2 35848  86.3897  11.3470 0009161 152.9599 207.2101 14.78845827668472"
      },
      "geometry": {
        "type": "Point",
        "coordinates": [
          14.605667059575165,
          47.14307496398566
        ]
      }
    },
    {
      "type": "Feature",
      "properties": {
        "norad_id": 35850,
        "name": "IRIDIUM 33 DEB",
        "group": "iridium-33-debris",
        "lat": 20.678583843016433,
        "lon": -19.856407735088897,
        "alt_km": 636.2948402690572,
        "timestamp": "2025-12-24T18:55:56.456823+00:00",
        "meta_object_name": "IRIDIUM 33 DEB",
        "meta_object_id": "1997-051TA",
        "meta_epoch": "2025-12-23T16:51:33.482304",
        "meta_mean_motion": 14.79050016,
        "meta_eccentricity": 0.00107739,
        "meta_inclination": 86.3501,
        "meta_ra_of_asc_node": 339.2572,
        "meta_arg_of_pericenter": 146.4147,
        "meta_mean_anomaly": 213.7758,
        "meta_ephemeris_type": 0,
        "meta_classification_type": "U",
        "meta_norad_cat_id": 35850,
        "meta_element_set_no": 999,
        "meta_rev_at_epoch": 71519,
        "meta_bstar": 0.001670653,
        "meta_mean_motion_dot": 0.00012399,
        "meta_mean_motion_ddot": 0,
        "tle_line1": "1 35850U 97051TA  25357.70247086  .00012399  00000+0  16707-2 0  9995",
        "tle_line2": "2 35850  86.3501 339.2572 0010773 146.4147 213.7758 14.79050016715191"
      },
      "geometry": {
        "type": "Point",
        "coordinates": [
          -19.856407735088897,
          20.678583843016433
        ]
      }
    }
  ]
}